ONEWEB-0545             
1 54647U 22166F   25354.77404535 -.00000015  00000+0 -66657-4 0  9998
2 54647  87.9224 279.5721 0002118  83.3887 276.7488 13.21827831147934
ONEWEB-0580             
1 54648U 22166G   25354.74772679  .00000035  00000+0  53365-4 0  9995
2 54648  87.9227 279.5766 0001959  85.8215 274.3143 13.21826157147977
ONEWEB-0582             
1 54649U 22166H   25354.79050693 -.00000006  00000+0 -47143-4 0  9993
2 54649  87.9227 279.5609 0002078  87.8273 272.3099 13.21826261147955
ONEWEB-0583             
1 54650U 22166J   25354.80202635  .00000056  00000+0  10342-3 0  9995
2 54650  87.9223 279.5831 0001918  77.6890 282.4458 13.21826467147964
ONEWEB-0584             
1 54651U 22166K   25354.74607472  .00000059  00000+0  11072-3 0  9991
2 54651  87.9223 279.5811 0001881  86.0997 274.0352 13.21825387147942
ONEWEB-0585             
1 54652U 22166L   25354.77076075 -.00000050  00000+0 -15146-3 0  9993
2 54652  87.9222 279.5604 0001671  73.1524 286.9793 13.21824225147954
ONEWEB-0586             
1 54653U 22166M   25354.55683150 -.00000019  00000+0 -77920-4 0  9992
2 54653  87.9225 279.6283 0001879  79.0557 281.0789 13.21822879147924
ONEWEB-0587             
1 54654U 22166N   25354.49101174  .00000054  00000+0  10018-3 0  9998
2 54654  87.9231 279.5981 0001514  64.5118 295.6172 13.21827140148074
